IRIDIUM 126             
1 42809U 17039G   25364.16928326  .00000352  00000+0  11852-3 0  9999
2 42809  86.3953  64.2982 0002148 101.5573 258.5864 14.34216424445728
IRIDIUM 124             
1 42810U 17039H   25364.09311219  .00000659  00000+0  19000-3 0  9993
2 42810  86.4490   1.0502 0002421  92.0759 268.0719 14.43289172450729
IRIDIUM 128             
1 42811U 17039J   25364.16003203 -.00000012  00000+0 -11224-4 0  9999
2 42811  86.3965  95.8392 0002364  92.8207 267.3260 14.34217670445750
IRIDIUM 121             
1 42812U 17039K   25364.11855279  .00000022  00000+0  84672-6 0  9991
2 42812  86.3952  64.3462 0002211  92.2861 267.8587 14.34217535445596
IRIDIUM 133             
1 42955U 17061A   25364.12197532  .00000151  00000+0  46853-4 0  9996
2 42955  86.3971  95.9688 0002180  96.8556 263.2888 14.34218336430544
IRIDIUM 100             
1 42956U 17061B   25364.11563318  .00000089  00000+0  24551-4 0  9996
2 42956  86.3969  95.8941 0002142  98.6432 261.5007 14.34217983430545
IRIDIUM 122             
1 42957U 17061C   25364.01415122  .00000253  00000+0  83132-4 0  9998
2 42957  86.3970  95.9362 0002113 100.0872 260.0563 14.34217990430538
IRIDIUM 129             
1 42958U 17061D   25364.17905892  .00000387  00000+0  13105-3 0  9994
2 42958  86.3971  95.9326 0001725  98.0660 262.0732 14.34219715430570
