<?xml version="1.0" encoding="UTF-8"?>
<ndm xmlns:xsi="http://www.w3.org/2001/XMLSchema-instance" xsi:noNamespaceSchemaLocation="https://sanaregistry.org/r/ndmxml_unqualified/ndmxml-2.0.0-master-2.0.xsd">
<omm id="CCSDS_OMM_VERS" version="2.0">
<header><CREATION_DATE/><ORIGINATOR/></header><body><segment><metadata><OBJECT_NAME>IRIDIUM 126</OBJECT_NAME><OBJECT_ID>2017-039G</OBJECT_ID><CENTER_NAME>EARTH</CENTER_NAME><REF_FRAME>TEME</REF_FRAME><TIME_SYSTEM>UTC</TIME_SYSTEM><MEAN_ELEMENT_THEORY>SGP4</MEAN_ELEMENT_THEORY></metadata><data><meanElements><EPOCH>2025-12-30T04:03:46.073664</EPOCH><MEAN_MOTION>14.34216424</MEAN_MOTION><ECCENTRICITY>.0002148</ECCENTRICITY><INCLINATION>86.3953</INCLINATION><RA_OF_ASC_NODE>64.2982</RA_OF_ASC_NODE><ARG_OF_PERICENTER>101.5573</ARG_OF_PERICENTER><MEAN_ANOMALY>258.5864</MEAN_ANOMALY></meanElements><tleParameters><EPHEMERIS_TYPE>0</EPHEMERIS_TYPE><CLASSIFICATION_TYPE>U</CLASSIFICATION_TYPE><NORAD_CAT_ID>42809</NORAD_CAT_ID><ELEMENT_SET_NO>999</ELEMENT_SET_NO><REV_AT_EPOCH>44572</REV_AT_EPOCH><BSTAR>.11852E-3</BSTAR><MEAN_MOTION_DOT>.352E-5</MEAN_MOTION_DOT><MEAN_MOTION_DDOT>0</MEAN_MOTION_DDOT></tleParameters></data></segment></body></omm>
<omm id="CCSDS_OMM_VERS" version="2.0">
<header><CREATION_DATE/><ORIGINATOR/></header><body><segment><metadata><OBJECT_NAME>IRIDIUM 124</OBJECT_NAME><OBJECT_ID>2017-039H</OBJECT_ID><CENTER_NAME>EARTH</CENTER_NAME><REF_FRAME>TEME</REF_FRAME><TIME_SYSTEM>UTC</TIME_SYSTEM><MEAN_ELEMENT_THEORY>SGP4</MEAN_ELEMENT_THEORY></metadata><data><meanElements><EPOCH>2025-12-30T02:14:04.893216</EPOCH><MEAN_MOTION>14.43289172</MEAN_MOTION><ECCENTRICITY>.0002421</ECCENTRICITY><INCLINATION>86.4490</INCLINATION><RA_OF_ASC_NODE>1.0502</RA_OF_ASC_NODE><ARG_OF_PERICENTER>92.0759</ARG_OF_PERICENTER><MEAN_ANOMALY>268.0719</MEAN_ANOMALY></meanElements><tleParameters><EPHEMERIS_TYPE>0</EPHEMERIS_TYPE><CLASSIFICATION_TYPE>U</CLASSIFICATION_TYPE><NORAD_CAT_ID>42810</NORAD_CAT_ID><ELEMENT_SET_NO>999</ELEMENT_SET_NO><REV_AT_EPOCH>45072</REV_AT_EPOCH><BSTAR>.19E-3</BSTAR><MEAN_MOTION_DOT>.659E-5</MEAN_MOTION_DOT><MEAN_MOTION_DDOT>0</MEAN_MOTION_DDOT></tleParameters></data></segment></body></omm>
<omm id="CCSDS_OMM_VERS" version="2.0">
<header><CREATION_DATE/><ORIGINATOR/></header><body><segment><metadata><OBJECT_NAME>IRIDIUM 128</OBJECT_NAME><OBJECT_ID>2017-039J</OBJECT_ID><CENTER_NAME>EARTH</CENTER_NAME><REF_FRAME>TEME</REF_FRAME><TIME_SYSTEM>UTC</TIME_SYSTEM><MEAN_ELEMENT_THEORY>SGP4</MEAN_ELEMENT_THEORY></metadata><data><meanElements><EPOCH>2025-12-30T03:50:26.767392</EPOCH><MEAN_MOTION>14.34217670</MEAN_MOTION><ECCENTRICITY>.0002364</ECCENTRICITY><INCLINATION>86.3965</INCLINATION><RA_OF_ASC_NODE>95.8392</RA_OF_ASC_NODE><ARG_OF_PERICENTER>92.8207</ARG_OF_PERICENTER><MEAN_ANOMALY>267.3260</MEAN_ANOMALY></meanElements><tleParameters><EPHEMERIS_TYPE>0</EPHEMERIS_TYPE><CLASSIFICATION_TYPE>U</CLASSIFICATION_TYPE><NORAD_CAT_ID>42811</NORAD_CAT_ID><ELEMENT_SET_NO>999</ELEMENT_SET_NO><REV_AT_EPOCH>44575</REV_AT_EPOCH><BSTAR>-.11224E-4</BSTAR><MEAN_MOTION_DOT>-.12E-6</MEAN_MOTION_DOT><MEAN_MOTION_DDOT>0</MEAN_MOTION_DDOT></tleParameters></data></segment></body></omm>
<omm id="CCSDS_OMM_VERS" version="2.0">
<header><CREATION_DATE/><ORIGINATOR/></header><body><segment><metadata><OBJECT_NAME>IRIDIUM 121</OBJECT_NAME><OBJECT_ID>2017-039K</OBJECT_ID><CENTER_NAME>EARTH</CENTER_NAME><REF_FRAME>TEME</REF_FRAME><TIME_SYSTEM>UTC</TIME_SYSTEM><MEAN_ELEMENT_THEORY>SGP4</MEAN_ELEMENT_THEORY></metadata><data><meanElements><EPOCH>2025-12-30T02:50:42.961056</EPOCH><MEAN_MOTION>14.34217535</MEAN_MOTION><ECCENTRICITY>.0002211</ECCENTRICITY><INCLINATION>86.3952</INCLINATION><RA_OF_ASC_NODE>64.3462</RA_OF_ASC_NODE><ARG_OF_PERICENTER>92.2861</ARG_OF_PERICENTER><MEAN_ANOMALY>267.8587</MEAN_ANOMALY></meanElements><tleParameters><EPHEMERIS_TYPE>0</EPHEMERIS_TYPE><CLASSIFICATION_TYPE>U</CLASSIFICATION_TYPE><NORAD_CAT_ID>42812</NORAD_CAT_ID><ELEMENT_SET_NO>999</ELEMENT_SET_NO><REV_AT_EPOCH>44559</REV_AT_EPOCH><BSTAR>.84672E-6</BSTAR><MEAN_MOTION_DOT>.22E-6</MEAN_MOTION_DOT><MEAN_MOTION_DDOT>0</MEAN_MOTION_DDOT></tleParameters></data></segment></body></omm>
<omm id="CCSDS_OMM_VERS" version="2.0">
<header><CREATION_DATE/><ORIGINATOR/></header><body><segment><metadata><OBJECT_NAME>IRIDIUM 133</OBJECT_NAME><OBJECT_ID>2017-061A</OBJECT_ID><CENTER_NAME>EARTH</CENTER_NAME><REF_FRAME>TEME</REF_FRAME><TIME_SYSTEM>UTC</TIME_SYSTEM><MEAN_ELEMENT_THEORY>SGP4</MEAN_ELEMENT_THEORY></metadata><data><meanElements><EPOCH>2025-12-30T02:55:38.667648</EPOCH><MEAN_MOTION>14.34218336</MEAN_MOTION><ECCENTRICITY>.000218</ECCENTRICITY><INCLINATION>86.3971</INCLINATION><RA_OF_ASC_NODE>95.9688</RA_OF_ASC_NODE><ARG_OF_PERICENTER>96.8556</ARG_OF_PERICENTER><MEAN_ANOMALY>263.2888</MEAN_ANOMALY></meanElements><tleParameters><EPHEMERIS_TYPE>0</EPHEMERIS_TYPE><CLASSIFICATION_TYPE>U</CLASSIFICATION_TYPE><NORAD_CAT_ID>42955</NORAD_CAT_ID><ELEMENT_SET_NO>999</ELEMENT_SET_NO><REV_AT_EPOCH>43054</REV_AT_EPOCH><BSTAR>.46853E-4</BSTAR><MEAN_MOTION_DOT>.151E-5</MEAN_MOTION_DOT><MEAN_MOTION_DDOT>0</MEAN_MOTION_DDOT></tleParameters></data></segment></body></omm>
<omm id="CCSDS_OMM_VERS" version="2.0">
<header><CREATION_DATE/><ORIGINATOR/></header><body><segment><metadata><OBJECT_NAME>IRIDIUM 100</OBJECT_NAME><OBJECT_ID>2017-061B</OBJECT_ID><CENTER_NAME>EARTH</CENTER_NAME><REF_FRAME>TEME</REF_FRAME><TIME_SYSTEM>UTC</TIME_SYSTEM><MEAN_ELEMENT_THEORY>SGP4</MEAN_ELEMENT_THEORY></metadata><data><meanElements><EPOCH>2025-12-30T02:46:30.706752</EPOCH><MEAN_MOTION>14.34217983</MEAN_MOTION><ECCENTRICITY>.0002142</ECCENTRICITY><INCLINATION>86.3969</INCLINATION><RA_OF_ASC_NODE>95.8941</RA_OF_ASC_NODE><ARG_OF_PERICENTER>98.6432</ARG_OF_PERICENTER><MEAN_ANOMALY>261.5007</MEAN_ANOMALY></meanElements><tleParameters><EPHEMERIS_TYPE>0</EPHEMERIS_TYPE><CLASSIFICATION_TYPE>U</CLASSIFICATION_TYPE><NORAD_CAT_ID>42956</NORAD_CAT_ID><ELEMENT_SET_NO>999</ELEMENT_SET_NO><REV_AT_EPOCH>43054</REV_AT_EPOCH><BSTAR>.24551E-4</BSTAR><MEAN_MOTION_DOT>.89E-6</MEAN_MOTION_DOT><MEAN_MOTION_DDOT>0</MEAN_MOTION_DDOT></tleParameters></data></segment></body></omm>
<omm id="CCSDS_OMM_VERS" version="2.0">
<header><CREATION_DATE/><ORIGINATOR/></header><body><segment><metadata><OBJECT_NAME>IRIDIUM 122</OBJECT_NAME><OBJECT_ID>2017-061C</OBJECT_ID><CENTER_NAME>EARTH</CENTER_NAME><REF_FRAME>TEME</REF_FRAME><TIME_SYSTEM>UTC</TIME_SYSTEM><MEAN_ELEMENT_THEORY>SGP4</MEAN_ELEMENT_THEORY></metadata><data><meanElements><EPOCH>2025-12-30T00:20:22.665408</EPOCH><MEAN_MOTION>14.34217990</MEAN_MOTION><ECCENTRICITY>.0002113</ECCENTRICITY><INCLINATION>86.3970</INCLINATION><RA_OF_ASC_NODE>95.9362</RA_OF_ASC_NODE><ARG_OF_PERICENTER>100.0872</ARG_OF_PERICENTER><MEAN_ANOMALY>260.0563</MEAN_ANOMALY></meanElements><tleParameters><EPHEMERIS_TYPE>0</EPHEMERIS_TYPE><CLASSIFICATION_TYPE>U</CLASSIFICATION_TYPE><NORAD_CAT_ID>42957</NORAD_CAT_ID><ELEMENT_SET_NO>999</ELEMENT_SET_NO><REV_AT_EPOCH>43053</REV_AT_EPOCH><BSTAR>.83132E-4</BSTAR><MEAN_MOTION_DOT>.253E-5</MEAN_MOTION_DOT><MEAN_MOTION_DDOT>0</MEAN_MOTION_DDOT></tleParameters></data></segment></body></omm>
<omm id="CCSDS_OMM_VERS" version="2.0">
<header><CREATION_DATE/><ORIGINATOR/></header><body><segment><metadata><OBJECT_NAME>IRIDIUM 129</OBJECT_NAME><OBJECT_ID>2017-061D</OBJECT_ID><CENTER_NAME>EARTH</CENTER_NAME><REF_FRAME>TEME</REF_FRAME><TIME_SYSTEM>UTC</TIME_SYSTEM><MEAN_ELEMENT_THEORY>SGP4</MEAN_ELEMENT_THEORY></metadata><data><meanElements><EPOCH>2025-12-30T04:17:50.690688</EPOCH><MEAN_MOTION>14.34219715</MEAN_MOTION><ECCENTRICITY>.0001725</ECCENTRICITY><INCLINATION>86.3971</INCLINATION><RA_OF_ASC_NODE>95.9326</RA_OF_ASC_NODE><ARG_OF_PERICENTER>98.0660</ARG_OF_PERICENTER><MEAN_ANOMALY>262.0732</MEAN_ANOMALY></meanElements><tleParameters><EPHEMERIS_TYPE>0</EPHEMERIS_TYPE><CLASSIFICATION_TYPE>U</CLASSIFICATION_TYPE><NORAD_CAT_ID>42958</NORAD_CAT_ID><ELEMENT_SET_NO>999</ELEMENT_SET_NO><REV_AT_EPOCH>43057</REV_AT_EPOCH><BSTAR>.13105E-3</BSTAR><MEAN_MOTION_DOT>.387E-5</MEAN_MOTION_DOT><MEAN_MOTION_DDOT>0</MEAN_MOTION_DDOT></tleParameters></data></segment></body></omm>

</ndm>
